LEMUR-2-FINNIAN         
1 66782U 25276DX  26157.47583390  .00008801  00000+0  70692-3 0  9994
2 66782  97.5254 228.8104 0008410 121.5267 238.6780 15.00241974 18393
LEMUR-2-STARLIGHT       
1 66783U 25276DY  26157.15568422  .00008660  00000+0  71867-3 0  9997
2 66783  97.5273 228.1699 0015234 159.8654 200.3173 14.98925272 28549
LEMUR-2-TARTIFLETTE     
1 66784U 25276DZ  26157.42138308  .00010270  00000+0  85100-3 0  9999
2 66784  97.5274 228.4322 0013896 165.1491 195.0143 14.98949627 28589
LEMUR-2-VUKASIN         
1 66785U 25276EA  26157.42432985  .00008984  00000+0  72159-3 0  9997
2 66785  97.5301 228.7061 0006274 149.6616 210.4972 15.00246779 28531
LEMUR-2-HOTSPUR-TOM     
1 66786U 25276EB  26157.14605144  .00009568  00000+0  79561-3 0  9999
2 66786  97.5241 228.1517 0015154 161.7221 198.4550 14.98820107 28478
LEMUR-2-MYRA            
1 66787U 25276EC  26157.45480852  .00008844  00000+0  71177-3 0  9992
2 66787  97.5219 228.6895 0015299 177.2463 182.8848 15.00100506 28608
LEMUR-2 FIKRETDENGIZ    
1 67363U 26004A   26157.57877775  .00004482  00000+0  49084-3 0  9996
2 67363  97.8016 156.3010 0009122 164.3226 195.8275 14.88248906 21709
TWILIGHT-1 OBJECT B     
1 67364U 26004B   26157.73346332  .00002434  00000+0  27323-3 0  9992
2 67364  97.8060 156.4725 0009251 154.9113 205.2555 14.87666521 21732
LEMUR-2-MARIO-SOUSA     
1 67365U 26004C   26157.56371250  .00005224  00000+0  56852-3 0  9990
2 67365  97.7994 156.2825 0008768 164.4177 195.7311 14.88430646 21714
LEMUR-2-SONNENBLUME     
1 67367U 26004E   26157.49356557  .00003364  00000+0  36987-3 0  9997
2 67367  97.7982 156.2017 0008345 166.5825 193.5615 14.88262544 21702
LEMUR-2-WOBLER          
1 67368U 26004F   26157.75733650  .00005057  00000+0  55033-3 0  9994
2 67368  97.8043 156.5734 0008765 155.1762 204.9878 14.88446860 21748
LEMUR-2-GRAM-E-SUE      
1 67370U 26004H   26157.54606804  .00003295  00000+0  36097-3 0  9995
2 67370  97.7974 156.2680 0007274 166.7193 193.4216 14.88424896 21710
LEMUR-2-KATIE           
1 67387U 26004AA  26157.54452972  .00006257  00000+0  65457-3 0  9991
2 67387  97.8036 156.6916 0004692 114.9965 245.1741 14.89975711 21724
LEMUR-2-HCS-BAZUS       
1 67388U 26004AB  26157.54363404  .00006901  00000+0  72140-3 0  9996
2 67388  97.8027 156.6727 0004309 110.1340 250.0342 14.89970235 21723
